SILU-1 (SILKROAD 1)     
1 42903U 17021F   18237.55238457  .00020550  00000-0  13793-3 0  9997
2 42903  42.7754 267.0967 0012355  68.8587  62.7294 15.74699394 60850
MIRATA                  
1 43015U 17073C   18236.86415122  .00001512  00000-0  12332-3 0  9993
2 43015  97.7042 165.0019 0259105  48.1198 314.1806 14.78257994 41283
MAKERSAT 0              
1 43016U 17073D   18237.32298898  .00000953  00000-0  79407-4 0  9990
2 43016  97.7069 165.5830 0260446  46.7192 315.5428 14.78232848 41340
ASTERIA                 
1 43020U 98067NH  18237.52244954  .00010191  00000-0  12660-3 0  9995
2 43020  51.6423  25.6853 0002741  74.0941 286.0354 15.60650906 43317
DELLINGR (RBLE)         
1 43021U 98067NJ  18237.34222821  .00005394  00000-0  76191-4 0  9994
2 43021  51.6408  28.9434 0002624  67.3741 292.7529 15.58338496 43250
OSIRIS-3U               
1 43027U 98067NL  18236.87372263  .00033302  00000-0  29861-3 0  9994
2 43027  51.6375  22.0232 0002439  37.5591 322.5575 15.67979135 43182
AEROCUBE 7B             
1 43042U 17071F   18237.53325743  .00002751  00000-0  79684-4 0  9995
2 43042  51.6391  63.5868 0005399 150.9747 209.1538 15.39228525 40289
AEROCUBE 7C             
1 43043U 17071G   18236.88400845  .00002380  00000-0  70321-4 0  9997
2 43043  51.6394  66.7576 0005512 150.7965 209.3329 15.39222398 40159
CHEFSAT                 
1 43044U 17071H   18237.17229627  .00004400  00000-0  11706-3 0  9994
2 43044  51.6396  64.2156 0005529 150.5360 209.5937 15.40353305 40213
ASGARDIA 1              
1 43049U 17071N   18237.05380530  .00002484  00000-0  72652-4 0  9995
2 43049  51.6394  65.6504 0002808 163.0788 197.0291 15.39345614 40179
ISARA                   
1 43050U 17071P   18237.11712416  .00004191  00000-0  11269-3 0  9999
2 43050  51.6390  64.5885 0002794 159.5905 200.5192 15.40150609 40194
FAUNA                   
1 43052U 17071R   18236.77625420  .00002035  00000-0  61069-4 0  9999
2 43052  51.6395  66.8073 0002842 158.6962 201.4141 15.39496361 40136
CORVUS BC3              
1 43118U 18004H   18237.42341510  .00000576  00000-0  28060-4 0  9999
2 43118  97.5277 300.1319 0009861 204.7864 155.2900 15.22348925 34244
MICROMAS-2A             
1 43131U 18004W   18237.42142004  .00001353  00000-0  60569-4 0  9995
2 43131  97.5288 300.3085 0008971 206.8857 153.1916 15.23015031 34254
GOMX4-B                 
1 43196U 18015E   18237.56019504  .00000287  00000-0  14843-4 0  9990
2 43196  97.3530   5.0967 0017527 275.1624  84.7612 15.23717033 31091
GOMX4-A                 
1 43197U 18015F   18237.56784900  .00000315  00000-0  16018-4 0  9998
2 43197  97.3554   5.1120 0017797 275.2121 147.2219 15.23721080 31109
1KUNS-PF                
1 43466U 98067NP  18237.33025384  .00009000  00000-0  12920-3 0  9998
2 43466  51.6399  32.6052 0000454  56.5887 303.5149 15.56930850 16462
UBAKUSAT                
1 43467U 98067NQ  18237.27649077  .00006318  00000-0  94129-4 0  9994
2 43467  51.6403  32.9988 0002706  36.7621 323.3556 15.56528397 16469
BATSU-CS1 (IRAZU)       
1 43468U 98067NR  18237.50935863  .00012004  00000-0  16771-3 0  9997
2 43468  51.6397  31.5510 0000283  58.5624 301.5396 15.57300738116482
CUBERRT                 
1 43546U 98067NU  18236.85672516  .00010378  00000-0  15743-3 0  9994
2 43546  51.6399  36.1864 0006397  92.7375 267.4348 15.55217402  6511
TEMPEST-D               
1 43547U 98067NV  18236.85916083  .00002904  00000-0  49703-4 0  9995
2 43547  51.6405  36.2029 0006674  93.8453 266.3301 15.54937538  6190
HALOSAT                 
1 43549U 98067NX  18236.86051707  .00005228  00000-0  83534-4 0  9993
2 43549  51.6402  36.2117 0006530 102.6652 257.5069 15.54998817  6200
ENDUROSAT ONE           
1 43551U 98067NZ  18236.53202330  .00007946  00000-0  12176-3 0  9992
2 43551  51.6397  37.7680 0006968 109.8695 250.3048 15.55322644  6565
EQUISAT                 
1 43552U 98067PA  18237.36776061  .00007437  00000-0  11462-3 0  9994
2 43552  51.6399  33.6000 0007198 113.0352 247.1399 15.55275882  6656
AEROCUBE 12A            
1 43556U 18046C   18237.04831698  .00000663  00000-0  37049-4 0  9994
2 43556  51.6442  43.3481 0009291  87.0432 273.1611 15.27725124  6042
AEROCUBE 12B            
1 43557U 18046D   18237.50618616  .00000306  00000-0  24083-4 0  9997
2 43557  51.6442  41.1549 0009294  88.4996 271.7048 15.27719300  6066
UITMSAT-1               
1 43589U 98067PD  18236.55429202  .00006874  00000-0  10846-3 0  9995
2 43589  51.6399  37.9152 0006564 118.9857 241.1793 15.54765358  2267
MAYA-1                  
1 43590U 98067PE  18236.48976710  .00006655  00000-0  10513-3 0  9998
2 43590  51.6398  38.2344 0006670 119.4081 240.7576 15.54792188  2184
BHUTAN-1                
1 43591U 98067PF  18236.48943523  .00006614  00000-0  10440-3 0  9999
2 43591  51.6399  38.2321 0006765 120.8519 239.3138 15.54828521  2187
SIRIUSSAT 1             
1 43595U 98067PG  18237.45870495  .00007252  00000-0  11537-3 0  9995
2 43595  51.6400  33.4513 0004083  77.6920 282.4528 15.54446374  1510
